{
  "48683": {
    "noradId": "48683",
    "tle": [
      "1 48683C 21044AX  26123.95673611  .00047127  00000+0  15159-2 0  1234",
      "2 48683  53.1592 168.2455 0001211  90.1161 109.2386 15.31668902    11"
    ]
  },
  "48684": {
    "noradId": "48684",
    "tle": [
      "1 48684C 21044AY  26123.92201389  .00012363  00000+0  39775-3 0  1236",
      "2 48684  53.1575 181.1246 0001117  73.2126 174.8646 15.31681124    11"
    ]
  },
  "48685": {
    "noradId": "48685",
    "tle": [
      "1 48685C 21044AZ  26123.94423611  .00043028  00000+0  13845-2 0  1234",
      "2 48685  53.1587 168.0184 0001267  91.8718  13.0539 15.31661968    18"
    ]
  },
  "48686": {
    "noradId": "48686",
    "tle": [
      "1 48686C 21044BA  26123.86645833 -.00012831  00000+0 -41270-3 0  1232",
      "2 48686  53.1567 178.8376 0001204  97.5492 336.3325 15.31700478    16"
    ]
  },
  "48687": {
    "noradId": "48687",
    "tle": [
      "1 48687C 21044BB  26123.88243056  .00009903  00000+0  31860-3 0  1234",
      "2 48687  53.1571 168.3753 0001213  94.3955 260.8766 15.31682477    12"
    ]
  },
  "48688": {
    "noradId": "48688",
    "tle": [
      "1 48688C 21044BC  26123.86298611  .00000047  00000+0  15183-5 0  1232",
      "2 48688  53.1588 168.6657 0001134  88.1406  31.1254 15.31681026    11"
    ]
  },
  "48690": {
    "noradId": "48690",
    "tle": [
      "1 48690C 21044BE  26123.87618056 -.00012036  00000+0 -38709-3 0  1235",
      "2 48690  53.1580 178.7501 0001533  81.9770 198.0767 15.31703937    12"
    ]
  },
  "48691": {
    "noradId": "48691",
    "tle": [
      "1 48691C 21044BF  26123.90604167  .00006817  00000+0  21928-3 0  1231",
      "2 48691  53.1577 178.5892 0001427  92.7887 276.6821 15.31688210    11"
    ]
  },
  "48692": {
    "noradId": "48692",
    "tle": [
      "1 48692C 21044BG  26123.86854167 -.00010286  00000+0 -33081-3 0  1234",
      "2 48692  53.1572 178.5549 0001281  98.5500 321.3157 15.31703440    13"
    ]
  },
  "48693": {
    "noradId": "48693",
    "tle": [
      "1 48693C 21044BH  26123.89423611 -.00002673  00000+0 -85951-4 0  1239",
      "2 48693  53.1564 178.5781 0001205  92.8717 158.2253 15.31710051    16"
    ]
  },
  "48694": {
    "noradId": "48694",
    "tle": [
      "1 48694C 21044BJ  26123.92201389  .00013491  00000+0  43394-3 0  1232",
      "2 48694  53.1581 181.6931 0001306  85.2428   8.1878 15.31687806    12"
    ]
  },
  "48695": {
    "noradId": "48695",
    "tle": [
      "1 48695C 21044BK  26123.86715278 -.00015110  00000+0 -48598-3 0  1236",
      "2 48695  53.1570 181.2596 0001093 104.3560 353.5987 15.31703790    16"
    ]
  },
  "48696": {
    "noradId": "48696",
    "tle": [
      "1 48696C 21044BL  26123.90604167 -.00010608  00000+0 -34123-3 0  1232",
      "2 48696  53.1578 191.8754 0001196  82.0873 319.7335 15.31697514    18"
    ]
  },
  "48880": {
    "noradId": "48880",
    "tle": [
      "1 48880C 21059B   26123.89701389  .01045900  00000+0  18069-1 0  1236",
      "2 48880  97.6609 250.8257 0001025  99.4125 359.5737 15.50484890    18"
    ]
  },
  "48881": {
    "noradId": "48881",
    "tle": [
      "1 48881C 21059C   26123.89354167 -.00024943  00000+0 -19452-2 0  1238",
      "2 48881  97.6598 249.6937 0001814  98.6502  26.6361 15.01283240    10"
    ]
  },
  "49131": {
    "noradId": "49131",
    "tle": [
      "1 49131C 21082B   26123.87062500  .01087400  00000+0  16111-2 0  1233",
      "2 49131  69.9961  99.5934 0004869 269.3927 221.3140 16.04101225    10"
    ]
  },
  "49132": {
    "noradId": "49132",
    "tle": [
      "1 49132C 21082C   26123.94701389  .00065188  00000+0  54654-2 0  1239",
      "2 49132  69.9995 155.0063 0003890 265.1491 261.7548 14.98278131    14"
    ]
  },
  "49133": {
    "noradId": "49133",
    "tle": [
      "1 49133C 21082D   26123.96020833  .00063503  00000+0  53218-2 0  1234",
      "2 49133  69.9994 155.0997 0003761 266.7320 241.1638 14.98296709    18"
    ]
  },
  "49134": {
    "noradId": "49134",
    "tle": [
      "1 49134C 21082E   26123.93451389  .00068657  00000+0  57538-2 0  1230",
      "2 49134  69.9994 155.1676 0004131 262.5767 129.2668 14.98292321    10"
    ]
  },
  "49135": {
    "noradId": "49135",
    "tle": [
      "1 49135C 21082F   26123.92756944  .00036413  00000+0  30514-2 0  1235",
      "2 49135  69.9995 115.1632 0003318 267.4149 246.9730 14.98313517    12"
    ]
  },
  "49137": {
    "noradId": "49137",
    "tle": [
      "1 49137C 21082H   26123.94701389  .00055696  00000+0  47668-2 0  1234",
      "2 49137  69.9996 136.0949 0003158 270.9324 230.1291 14.97486899    14"
    ]
  },
  "49138": {
    "noradId": "49138",
    "tle": [
      "1 49138C 21082J   26123.88243056  .00041008  00000+0  34371-2 0  1239",
      "2 49138  69.9994 155.3023 0003761 267.5542 225.9334 14.98302757    15"
    ]
  },
  "49139": {
    "noradId": "49139",
    "tle": [
      "1 49139C 21082K   26123.92895833  .00034047  00000+0  28529-2 0  1234",
      "2 49139  69.9996 115.1669 0003108 266.7706 300.1092 14.98318118    11"
    ]
  },
  "49141": {
    "noradId": "49141",
    "tle": [
      "1 49141C 21082M   26123.95187500  .00064360  00000+0  53932-2 0  1232",
      "2 49141  69.9994 155.1312 0003796 264.8147 265.6397 14.98299095    17"
    ]
  },
  "49143": {
    "noradId": "49143",
    "tle": [
      "1 49143C 21082P   26123.91159722  .00073436  00000+0  62842-2 0  1239",
      "2 49143  69.9995 136.1880 0003813 266.3865  65.6084 14.97481845    19"
    ]
  },
  "49144": {
    "noradId": "49144",
    "tle": [
      "1 49144C 21082Q   26123.89076389  .00049491  00000+0  41477-2 0  1239",
      "2 49144  69.9998 155.2644 0003912 267.2992 338.6230 14.98301934    11"
    ]
  },
  "49145": {
    "noradId": "49145",
    "tle": [
      "1 49145C 21082R   26123.92270833  .00042551  00000+0  35651-2 0  1231",
      "2 49145  70.0000 115.1801 0003654 266.7316  63.9364 14.98316725    16"
    ]
  },
  "49146": {
    "noradId": "49146",
    "tle": [
      "1 49146C 21082S   26123.87409722  .00064205  00000+0  54937-2 0  1235",
      "2 49146  69.9996 136.2859 0004203 264.0692 248.3255 14.97489242    16"
    ]
  },
  "49147": {
    "noradId": "49147",
    "tle": [
      "1 49147C 21082T   26123.90256944  .00048495  00000+0  40635-2 0  1239",
      "2 49147  69.9998 115.2489 0003632 266.2943 248.2746 14.98310024    19"
    ]
  },
  "49148": {
    "noradId": "49148",
    "tle": [
      "1 49148C 21082U   26123.88798611  .00071011  00000+0  60766-2 0  1236",
      "2 49148  69.9994 136.2291 0003862 262.8246   9.3497 14.97483389    16"
    ]
  },
  "49151": {
    "noradId": "49151",
    "tle": [
      "1 49151C 21082X   26123.93243056  .00038902  00000+0  32593-2 0  1233",
      "2 49151  69.9999 115.1622 0003614 265.2314 162.8580 14.98319293    18"
    ]
  },
  "49153": {
    "noradId": "49153",
    "tle": [
      "1 49153C 21082Z   26123.91993056  .00046628  00000+0  39070-2 0  1236",
      "2 49153  69.9996 115.2001 0003418 265.8703 139.8147 14.98312332    19"
    ]
  },
  "49154": {
    "noradId": "49154",
    "tle": [
      "1 49154C 21082AA  26123.88381944  .00069968  00000+0  59873-2 0  1235",
      "2 49154  69.9995 136.2432 0003696 266.5987   5.6973 14.97484519    13"
    ]
  },
  "49155": {
    "noradId": "49155",
    "tle": [
      "1 49155C 21082AB  26123.89493056  .00054608  00000+0  45762-2 0  1232",
      "2 49155  69.9994 115.2551 0003671 262.1065  31.2664 14.98303110    14"
    ]
  },
  "49156": {
    "noradId": "49156",
    "tle": [
      "1 49156C 21082AC  26123.91506944  .00042288  00000+0  35433-2 0  1232",
      "2 49156  69.9996 115.2060 0003603 265.3058 249.1751 14.98313850    13"
    ]
  },
  "49157": {
    "noradId": "49157",
    "tle": [
      "1 49157C 21082AD  26123.90395833  .00078788  00000+0  55211-2 0  1235",
      "2 49157  69.9963 131.1279 0005175 222.1598  93.9963 15.05083427    16"
    ]
  },
  "49158": {
    "noradId": "49158",
    "tle": [
      "1 49158C 21082AE  26123.90812500  .00034130  00000+0  26811-3 0  1239",
      "2 49158  69.9657  18.5737 0004505 194.6788 308.6116 15.71269088    12"
    ]
  },
  "49159": {
    "noradId": "49159",
    "tle": [
      "1 49159C 21082AF  26123.95534722  .00073238  00000+0  61373-2 0  1235",
      "2 49159  69.9997 155.1120 0003652 266.1252  35.5516 14.98294549    15"
    ]
  },
  "49160": {
    "noradId": "49160",
    "tle": [
      "1 49160C 21082AG  26123.87479167  .00039070  00000+0  32745-2 0  1236",
      "2 49160  69.9995 155.2972 0003791 266.0063  28.7835 14.98305519    12"
    ]
  },
  "49161": {
    "noradId": "49161",
    "tle": [
      "1 49161C 21082AH  26123.91368056  .00060357  00000+0  50600-2 0  1238",
      "2 49161  69.9994 155.1954 0004245 266.1201 215.9439 14.98282780    15"
    ]
  },
  "49163": {
    "noradId": "49163",
    "tle": [
      "1 49163C 21082AK  26123.89423611  .00070717  00000+0  60515-2 0  1233",
      "2 49163  69.9994 136.2282 0003744 266.1023 129.8408 14.97483803    13"
    ]
  },
  "49164": {
    "noradId": "49164",
    "tle": [
      "1 49164C 21082AL  26123.88868056  .00068093  00000+0  57062-2 0  1236",
      "2 49164  69.9996 135.2772 0003434 265.1990 308.2345 14.98297244    13"
    ]
  },
  "49165": {
    "noradId": "49165",
    "tle": [
      "1 49165C 21082AM  26123.89354167  .00051038  00000+0  42791-2 0  1235",
      "2 49165  69.9995 155.2816 0003528 270.6631 147.7832 14.98286341    14"
    ]
  },
  "49166": {
    "noradId": "49166",
    "tle": [
      "1 49166C 21082AN  26123.91298611  .00062404  00000+0  53399-2 0  1235",
      "2 49166  69.9994 136.1848 0003633 267.6107 251.8902 14.97489787    11"
    ]
  },
  "49167": {
    "noradId": "49167",
    "tle": [
      "1 49167C 21082AP  26123.92895833  .00067948  00000+0  56953-2 0  1233",
      "2 49167  69.9995 155.1715 0003503 268.6040  25.7870 14.98288665    15"
    ]
  }
}